
# Worst residual: 78.33 km
# MJD 59606.000000 (2022 Jan 27  0:00)
A10CTlK = ZTF0NWM
1 99999U 00000    22027.49919926  .00000000  00000-0  00000-0 0 14364
2 99999 037.0807 083.5881 8245426 222.7524 336.0666 00.78737486    00

# Worst residual: 50.01 km
# MJD 59607.000000 (2022 Jan 28  0:00)
A10CTlK = ZTF0NWM
1 99999U 00000    22028.49919926  .00000000  00000-0  00000-0 0 14365
2 99999 036.9278 083.3360 8237826 223.1834 258.6478 00.78555789    08

# Worst residual: 39.81 km
# MJD 59608.000000 (2022 Jan 29  0:00)
A10CTlK = ZTF0NWM
1 99999U 00000    22029.49919926  .00000000  00000-0  00000-0 0 14366
2 99999 036.7840 083.0564 8232345 223.6940 181.2916 00.78519808    08

# Worst residual: 73.32 km
# MJD 59609.000000 (2022 Jan 30  0:00)
A10CTlK = ZTF0NWM
1 99999U 00000    22030.49919926  .00000000  00000-0  00000-0 0 14368
2 99999 036.6710 082.7692 8233917 224.1781 103.9293 00.78616041    02

# Worst residual: 55.81 km
# MJD 59610.000000 (2022 Jan 31  0:00)
A10CTlK = ZTF0NWM
1 99999U 00000    22031.49919926  .00000000  00000-0  00000-0 0 14369
2 99999 036.5161 082.4009 8229444 224.7079 026.3938 00.78755739    08

# Worst residual: 68.64 km
# MJD 59611.000000 (2022 Feb  1  0:00)
A10CTlK = ZTF0NWM
1 99999U 00000    22032.49919926  .00000000  00000-0  00000-0 0 14360
2 99999 036.3148 082.0230 8224179 225.2697 308.7099 00.78627982    08

# Worst residual: 37.46 km
# MJD 59612.000000 (2022 Feb  2  0:00)
A10CTlK = ZTF0NWM
1 99999U 00000    22033.49919926  .00000000  00000-0  00000-0 0 14361
2 99999 036.1680 081.7546 8212990 225.7311 231.2648 00.78497146    06

# Worst residual: 40.16 km
# MJD 59613.000000 (2022 Feb  3  0:00)
A10CTlK = ZTF0NWM
1 99999U 00000    22034.49919926  .00000000  00000-0  00000-0 0 14362
2 99999 036.0233 081.4350 8208328 226.2709 153.8507 00.78512948    07

# Worst residual: 84.15 km
# MJD 59614.000000 (2022 Feb  4  0:00)
A10CTlK = ZTF0NWM
1 99999U 00000    22035.49919926  .00000000  00000-0  00000-0 0 14363
2 99999 035.9105 081.1113 8209283 226.7494 076.3938 00.78664852    03

# Worst residual: 61.08 km
# MJD 59615.000000 (2022 Feb  5  0:00)
A10CTlK = ZTF0NWM
1 99999U 00000    22036.49919926  .00000000  00000-0  00000-0 0 14364
2 99999 035.7171 080.6577 8200347 227.3738 358.6470 00.78715385    07

# Worst residual: 69.56 km
# MJD 59616.000000 (2022 Feb  6  0:00)
A10CTlK = ZTF0NWM
1 99999U 00000    22037.49919926  .00000000  00000-0  00000-0 0 14365
2 99999 035.5206 080.2745 8190754 227.9189 281.0149 00.78540462    07

# Worst residual: 42.51 km
# MJD 59617.000000 (2022 Feb  7  0:00)
A10CTlK = ZTF0NWM
1 99999U 00000    22038.49919926  .00000000  00000-0  00000-0 0 14366
2 99999 035.3709 079.9680 8180890 228.4309 203.5384 00.78481426    00

# Worst residual: 63.68 km
# MJD 59618.000000 (2022 Feb  8  0:00)
A10CTlK = ZTF0NWM
1 99999U 00000    22039.49919926  .00000000  00000-0  00000-0 0 14367
2 99999 035.2369 079.6078 8177601 228.9777 126.0462 00.78550179    07

# Worst residual: 72.73 km
# MJD 59619.000000 (2022 Feb  9  0:00)
A10CTlK = ZTF0NWM
1 99999U 00000    22040.49919926  .00000000  00000-0  00000-0 0 14369
2 99999 035.1038 079.1993 8170382 229.5123 048.4822 00.78705309    05

# Worst residual: 63.77 km
# MJD 59620.000000 (2022 Feb 10  0:00)
A10CTlK = ZTF0NWM
1 99999U 00000    22041.49919926  .00000000  00000-0  00000-0 0 14360
2 99999 034.8932 078.7052 8161937 230.1687 330.6545 00.78627821    04

# Worst residual: 37.07 km
# MJD 59621.000000 (2022 Feb 11  0:00)
A10CTlK = ZTF0NWM
1 99999U 00000    22042.49919926  .00000000  00000-0  00000-0 0 14361
2 99999 034.7320 078.3793 8148062 230.6575 253.0672 00.78469855    07

# Worst residual: 47.14 km
# MJD 59622.000000 (2022 Feb 12  0:00)
A10CTlK = ZTF0NWM
1 99999U 00000    22043.49919926  .00000000  00000-0  00000-0 0 14362
2 99999 034.5792 077.9937 8140045 231.2475 175.5164 00.78465515    05

# Worst residual: 86.15 km
# MJD 59623.000000 (2022 Feb 13  0:00)
A10CTlK = ZTF0NWM
1 99999U 00000    22044.49919926  .00000000  00000-0  00000-0 0 14363
2 99999 034.4647 077.6193 8138060 231.7783 097.9375 00.78582140    00

# Worst residual: 50.13 km
# MJD 59624.000000 (2022 Feb 14  0:00)
A10CTlK = ZTF0NWM
1 99999U 00000    22045.49919926  .00000000  00000-0  00000-0 0 14364
2 99999 034.2985 077.1143 8126045 232.4208 020.1504 00.78692208    02

# Worst residual: 54.44 km
# MJD 59625.000000 (2022 Feb 15  0:00)
A10CTlK = ZTF0NWM
1 99999U 00000    22046.49919926  .00000000  00000-0  00000-0 0 14365
2 99999 034.0878 076.6022 8114051 233.0855 302.3210 00.78520226    09

# Worst residual: 46.19 km
# MJD 59626.000000 (2022 Feb 16  0:00)
A10CTlK = ZTF0NWM
1 99999U 00000    22047.49919926  .00000000  00000-0  00000-0 0 14366
2 99999 033.9312 076.2411 8097832 233.6338 224.7021 00.78433897    01

# Worst residual: 45.22 km
# MJD 59627.000000 (2022 Feb 17  0:00)
A10CTlK = ZTF0NWM
1 99999U 00000    22048.49919926  .00000000  00000-0  00000-0 0 14367
2 99999 033.7831 075.8013 8087624 234.2553 147.0877 00.78479123    00

# Worst residual: 85.78 km
# MJD 59628.000000 (2022 Feb 18  0:00)
A10CTlK = ZTF0NWM
1 99999U 00000    22049.49919926  .00000000  00000-0  00000-0 0 14368
2 99999 033.6788 075.3717 8080595 234.7926 069.4394 00.78635699    08

# Worst residual: 57.01 km
# MJD 59629.000000 (2022 Feb 19  0:00)
A10CTlK = ZTF0NWM
1 99999U 00000    22050.49919926  .00000000  00000-0  00000-0 0 14360
2 99999 033.4875 074.7844 8065128 235.5153 351.5324 00.78617147    09

# Worst residual: 59.05 km
# MJD 59630.000000 (2022 Feb 20  0:00)
A10CTlK = ZTF0NWM
1 99999U 00000    22051.49919926  .00000000  00000-0  00000-0 0 14361
2 99999 033.3115 074.3384 8049389 236.0966 273.8170 00.78448945    02

# Worst residual: 49.65 km
# MJD 59631.000000 (2022 Feb 21  0:00)
A10CTlK = ZTF0NWM
1 99999U 00000    22052.49919926  .00000000  00000-0  00000-0 0 14362
2 99999 033.1686 073.9377 8035534 236.6820 196.1749 00.78433944    04

# Worst residual: 80.75 km
# MJD 59632.000000 (2022 Feb 22  0:00)
A10CTlK = ZTF0NWM
1 99999U 00000    22053.49919926  .00000000  00000-0  00000-0 0 14363
2 99999 033.0566 073.5073 8028369 237.2562 118.5204 00.78531353    04

# Worst residual: 62.62 km
# MJD 59633.000000 (2022 Feb 23  0:00)
A10CTlK = ZTF0NWM
1 99999U 00000    22054.49919926  .00000000  00000-0  00000-0 0 14364
2 99999 032.9347 072.9889 8012915 237.8847 040.7102 00.78657410    05

# Worst residual: 63.68 km
# MJD 59634.000000 (2022 Feb 24  0:00)
A10CTlK = ZTF0NWM
1 99999U 00000    22055.49919926  .00000000  00000-0  00000-0 0 14365
2 99999 032.7446 072.3922 7997053 238.6122 322.7699 00.78520909    00

# Worst residual: 51.30 km
# MJD 59635.000000 (2022 Feb 25  0:00)
A10CTlK = ZTF0NWM
1 99999U 00000    22056.49919926  .00000000  00000-0  00000-0 0 14366
2 99999 032.5991 072.0018 7976615 239.1602 245.0577 00.78403346    03
